{
  "type": "FeatureCollection",
  "features": [
    {
      "type": "Feature",
      "properties": {
        "norad_id": 46277,
        "name": "NEMO-HD",
        "group": "resource",
        "lat": -55.21767217858743,
        "lon": 63.676405605651546,
        "alt_km": 452.08966719752243,
        "timestamp": "2025-12-20T03:42:47.049917+00:00",
        "meta_object_name": "NEMO-HD",
        "meta_object_id": "2020-061F",
        "meta_epoch": "2025-12-19T20:09:37.221696",
        "meta_mean_motion": 15.40465715,
        "meta_eccentricity": 0.0001429,
        "meta_inclination": 97.2205,
        "meta_ra_of_asc_node": 52.8481,
        "meta_arg_of_pericenter": 51.6082,
        "meta_mean_anomaly": 308.5293,
        "meta_ephemeris_type": 0,
        "meta_classification_type": "U",
        "meta_norad_cat_id": 46277,
        "meta_element_set_no": 999,
        "meta_rev_at_epoch": 29433,
        "meta_bstar": 0.0001857,
        "meta_mean_motion_dot": 7.44e-05,
        "meta_mean_motion_ddot": 0,
        "tle_line1": "1 46277U 20061F   25353.84001414  .00007440  00000+0  18570-3 0  9993",
        "tle_line2": "2 46277  97.2205  52.8481 0001429  51.6082 308.5293 15.40465715294338"
      },
      "geometry": {
        "type": "Point",
        "coordinates": [
          63.676405605651546,
          -55.21767217858743
        ]
      }
    },
    {
      "type": "Feature",
      "properties": {
        "norad_id": 46984,
        "name": "SENTINEL-6A",
        "group": "resource",
        "lat": 66.00008031721109,
        "lon": -126.00097226190267,
        "alt_km": 1336.3814357712117,
        "timestamp": "2025-12-20T03:42:47.049927+00:00",
        "meta_object_name": "SENTINEL-6A",
        "meta_object_id": "2020-086A",
        "meta_epoch": "2025-12-19T19:45:19.960416",
        "meta_mean_motion": 12.80930846,
        "meta_eccentricity": 0.0007715,
        "meta_inclination": 66.0393,
        "meta_ra_of_asc_node": 147.5954,
        "meta_arg_of_pericenter": 269.316,
        "meta_mean_anomaly": 90.6971,
        "meta_ephemeris_type": 0,
        "meta_classification_type": "U",
        "meta_norad_cat_id": 46984,
        "meta_element_set_no": 999,
        "meta_rev_at_epoch": 23735,
        "meta_bstar": -1.8193e-05,
        "meta_mean_motion_dot": -6.5e-07,
        "meta_mean_motion_ddot": 0,
        "tle_line1": "1 46984U 20086A   25353.82314769 -.00000065  00000+0 -18193-4 0  9993",
        "tle_line2": "2 46984  66.0393 147.5954 0007715 269.3160  90.6971 12.80930846237355"
      },
      "geometry": {
        "type": "Point",
        "coordinates": [
          -126.00097226190267,
          66.00008031721109
        ]
      }
    },
    {
      "type": "Feature",
      "properties": {
        "norad_id": 48079,
        "name": "GAOFEN-12 02",
        "group": "resource",
        "lat": -72.47327896690255,
        "lon": 141.73496715483878,
        "alt_km": 636.9380386549765,
        "timestamp": "2025-12-20T03:42:47.049937+00:00",
        "meta_object_name": "GAOFEN-12 02",
        "meta_object_id": "2021-026A",
        "meta_epoch": "2025-12-19T20:04:50.430720",
        "meta_mean_motion": 14.80683033,
        "meta_eccentricity": 0.0003594,
        "meta_inclination": 97.9853,
        "meta_ra_of_asc_node": 347.8089,
        "meta_arg_of_pericenter": 86.9837,
        "meta_mean_anomaly": 273.1786,
        "meta_ephemeris_type": 0,
        "meta_classification_type": "U",
        "meta_norad_cat_id": 48079,
        "meta_element_set_no": 999,
        "meta_rev_at_epoch": 25522,
        "meta_bstar": 5.2368e-05,
        "meta_mean_motion_dot": 3.5e-06,
        "meta_mean_motion_ddot": 0,
        "tle_line1": "1 48079U 21026A   25353.83669480  .00000350  00000+0  52368-4 0  9996",
        "tle_line2": "2 48079  97.9853 347.8089 0003594  86.9837 273.1786 14.80683033255228"
      },
      "geometry": {
        "type": "Point",
        "coordinates": [
          141.73496715483878,
          -72.47327896690255
        ]
      }
    },
    {
      "type": "Feature",
      "properties": {
        "norad_id": 48268,
        "name": "PLEIADES NEO 3",
        "group": "resource",
        "lat": -12.330514922169055,
        "lon": 68.22779552439131,
        "alt_km": 628.6902553613227,
        "timestamp": "2025-12-20T03:42:47.049947+00:00",
        "meta_object_name": "PLEIADES NEO 3",
        "meta_object_id": "2021-034A",
        "meta_epoch": "2025-12-19T21:17:09.626208",
        "meta_mean_motion": 14.81672476,
        "meta_eccentricity": 0.0001331,
        "meta_inclination": 97.8951,
        "meta_ra_of_asc_node": 66.2256,
        "meta_arg_of_pericenter": 88.6165,
        "meta_mean_anomaly": 271.52,
        "meta_ephemeris_type": 0,
        "meta_classification_type": "U",
        "meta_norad_cat_id": 48268,
        "meta_element_set_no": 999,
        "meta_rev_at_epoch": 25110,
        "meta_bstar": 9.1581e-05,
        "meta_mean_motion_dot": 6.69e-06,
        "meta_mean_motion_ddot": 0,
        "tle_line1": "1 48268U 21034A   25353.88691697  .00000669  00000+0  91581-4 0  9998",
        "tle_line2": "2 48268  97.8951  66.2256 0001331  88.6165 271.5200 14.81672476251100"
      },
      "geometry": {
        "type": "Point",
        "coordinates": [
          68.22779552439131,
          -12.330514922169055
        ]
      }
    },
    {
      "type": "Feature",
      "properties": {
        "norad_id": 49070,
        "name": "PLEIADES NEO 4",
        "group": "resource",
        "lat": 11.998037306222026,
        "lon": -111.82421457037452,
        "alt_km": 625.1751483870239,
        "timestamp": "2025-12-20T03:42:47.049957+00:00",
        "meta_object_name": "PLEIADES NEO 4",
        "meta_object_id": "2021-073E",
        "meta_epoch": "2025-12-19T20:28:31.109376",
        "meta_mean_motion": 14.81672903,
        "meta_eccentricity": 0.0001326,
        "meta_inclination": 97.8951,
        "meta_ra_of_asc_node": 66.1886,
        "meta_arg_of_pericenter": 91.607,
        "meta_mean_anomaly": 268.5295,
        "meta_ephemeris_type": 0,
        "meta_classification_type": "U",
        "meta_norad_cat_id": 49070,
        "meta_element_set_no": 999,
        "meta_rev_at_epoch": 23481,
        "meta_bstar": -2.1346e-05,
        "meta_mean_motion_dot": -2.2e-06,
        "meta_mean_motion_ddot": 0,
        "tle_line1": "1 49070U 21073E   25353.85313784 -.00000220  00000+0 -21346-4 0  9995",
        "tle_line2": "2 49070  97.8951  66.1886 0001326  91.6070 268.5295 14.81672903234817"
      },
      "geometry": {
        "type": "Point",
        "coordinates": [
          -111.82421457037452,
          11.998037306222026
        ]
      }
    },
    {
      "type": "Feature",
      "properties": {
        "norad_id": 49260,
        "name": "LANDSAT 9",
        "group": "resource",
        "lat": -68.17160003081946,
        "lon": -138.9661174821268,
        "alt_km": 710.5329144865136,
        "timestamp": "2025-12-20T03:42:47.049967+00:00",
        "meta_object_name": "LANDSAT 9",
        "meta_object_id": "2021-088A",
        "meta_epoch": "2025-12-19T15:02:03.183936",
        "meta_mean_motion": 14.57104632,
        "meta_eccentricity": 0.0001115,
        "meta_inclination": 98.2087,
        "meta_ra_of_asc_node": 61.6374,
        "meta_arg_of_pericenter": 91.1885,
        "meta_mean_anomaly": 268.9441,
        "meta_ephemeris_type": 0,
        "meta_classification_type": "U",
        "meta_norad_cat_id": 49260,
        "meta_element_set_no": 999,
        "meta_rev_at_epoch": 22485,
        "meta_bstar": 8.05e-05,
        "meta_mean_motion_dot": 3.17e-06,
        "meta_mean_motion_ddot": 0,
        "tle_line1": "1 49260U 21088A   25353.62642574  .00000317  00000+0  80500-4 0  9991",
        "tle_line2": "2 49260  98.2087  61.6374 0001115  91.1885 268.9441 14.57104632224852"
      },
      "geometry": {
        "type": "Point",
        "coordinates": [
          -138.9661174821268,
          -68.17160003081946
        ]
      }
    },
    {
      "type": "Feature",
      "properties": {
        "norad_id": 51444,
        "name": "CSG-2",
        "group": "resource",
        "lat": -32.95680805723337,
        "lon": -9.786149402544284,
        "alt_km": 629.3646159638574,
        "timestamp": "2025-12-20T03:42:47.049977+00:00",
        "meta_object_name": "CSG-2",
        "meta_object_id": "2022-008A",
        "meta_epoch": "2025-12-19T20:16:23.287872",
        "meta_mean_motion": 14.82149464,
        "meta_eccentricity": 0.0001445,
        "meta_inclination": 97.8798,
        "meta_ra_of_asc_node": 175.0603,
        "meta_arg_of_pericenter": 84.2021,
        "meta_mean_anomaly": 275.9357,
        "meta_ephemeris_type": 0,
        "meta_classification_type": "U",
        "meta_norad_cat_id": 51444,
        "meta_element_set_no": 999,
        "meta_rev_at_epoch": 21002,
        "meta_bstar": 8.4468e-06,
        "meta_mean_motion_dot": 1.5e-07,
        "meta_mean_motion_ddot": 0,
        "tle_line1": "1 51444U 22008A   25353.84471398  .00000015  00000+0  84468-5 0  9992",
        "tle_line2": "2 51444  97.8798 175.0603 0001445  84.2021 275.9357 14.82149464210027"
      },
      "geometry": {
        "type": "Point",
        "coordinates": [
          -9.786149402544284,
          -32.95680805723337
        ]
      }
    }
  ]
}